[{"OBJECT_NAME":"STARLINK-30069","OBJECT_ID":"2023-079M","EPOCH":"2026-03-08T11:34:15.947328","MEAN_MOTION":15.26726881,"ECCENTRICITY":4.69e-5,"INCLINATION":42.9986,"RA_OF_ASC_NODE":110.4464,"ARG_OF_PERICENTER":272.6695,"MEAN_ANOMALY":87.4103,"EPHEMERIS_TYPE":0,"CLASSIFICATION_TYPE":"U","NORAD_CAT_ID":56834,"ELEMENT_SET_NO":999,"REV_AT_EPOCH":15274,"BSTAR":-8.0472e-5,"MEAN_MOTION_DOT":-2.416e-5,"MEAN_MOTION_DDOT":0},{"OBJECT_NAME":"STARLINK-35582","OBJECT_ID":"2025-265X","EPOCH":"2026-03-09T13:29:26.996928","MEAN_MOTION":15.27598737,"ECCENTRICITY":0.00036595,"INCLINATION":43.0013,"RA_OF_ASC_NODE":278.6784,"ARG_OF_PERICENTER":295.6523,"MEAN_ANOMALY":64.3951,"EPHEMERIS_TYPE":0,"CLASSIFICATION_TYPE":"U","NORAD_CAT_ID":66537,"ELEMENT_SET_NO":999,"REV_AT_EPOCH":1709,"BSTAR":0.0010915223,"MEAN_MOTION_DOT":0.00029917,"MEAN_MOTION_DDOT":0}]
